start=new Date('2023-03-26T00:00:00.000Z').valueOf();
sats=[{"MEAN_ANOMALY":"217.8505","OBJECT_NAME":"STARLINK-5690","EPHEMERIS_TYPE":"0","COUNTRY_CODE":"US","SEMIMAJOR_AXIS":"6880.227","NORAD_CAT_ID":"55480","CENTER_NAME":"EARTH","MEAN_MOTION":"15.21243081","CLASSIFICATION_TYPE":"U","PERIAPSIS":"501.279","FILE":"3871104","RCS_SIZE":"LARGE","BSTAR":"-0.04188100000000","TIME_SYSTEM":"UTC","MEAN_ELEMENT_THEORY":"SGP4","SITE":"AFETR","REV_AT_EPOCH":"130","REF_FRAME":"TEME","INCLINATION":"42.9986","RA_OF_ASC_NODE":"83.6433","TLE_LINE1":"1 55480U 23015AH  23084.91667824 -.00885796  00000-0 -41881-1 0  9991","GP_ID":"228874964","MEAN_MOTION_DOT":"-0.00885796","OBJECT_TYPE":"PAYLOAD","APOAPSIS":"502.905","ECCENTRICITY":"0.00011810","PERIOD":"94.659","EPOCH":"2023-03-25T22:00:00.999936","ARG_OF_PERICENTER":"268.2816","DECAY_DATE":null,"OBJECT_ID":"2023-015AH","ELEMENT_SET_NO":"999","TLE_LINE2":"2 55480  42.9986  83.6433 0001181 268.2816 217.8505 15.21243081  1302","LAUNCH_DATE":"2023-02-02","MEAN_MOTION_DDOT":"0.0000000000000"},{"MEAN_ANOMALY":"87.8914","OBJECT_NAME":"STARLINK-5694","EPHEMERIS_TYPE":"0","COUNTRY_CODE":"US","SEMIMAJOR_AXIS":"6931.223","NORAD_CAT_ID":"55481","CENTER_NAME":"EARTH","MEAN_MOTION":"15.04485329","CLASSIFICATION_TYPE":"U","PERIAPSIS":"551.874","RCS_SIZE":"LARGE","FILE":"3871104","BSTAR":"0.00405990000000","TIME_SYSTEM":"UTC","MEAN_ELEMENT_THEORY":"SGP4","REV_AT_EPOCH":"130","SITE":"AFETR","REF_FRAME":"TEME","INCLINATION":"43.0003","RA_OF_ASC_NODE":"86.5487","TLE_LINE1":"1 55481U 23015AJ  23084.91667824  .00058040  00000-0  40599-2 0  9990","GP_ID":"228874714","OBJECT_TYPE":"PAYLOAD","MEAN_MOTION_DOT":"0.00058040","APOAPSIS":"554.302","PERIOD":"95.714","ECCENTRICITY":"0.00017510","ARG_OF_PERICENTER":"269.6646","EPOCH":"2023-03-25T22:00:00.999936","DECAY_DATE":null,"OBJECT_ID":"2023-015AJ","ELEMENT_SET_NO":"999","TLE_LINE2":"2 55481  43.0003  86.5487 0001751 269.6646  87.8914 15.04485329  1308","LAUNCH_DATE":"2023-02-02","MEAN_MOTION_DDOT":"0.0000000000000"},{"OBJECT_ID":"2023-015AK","ELEMENT_SET_NO":"999","ARG_OF_PERICENTER":"251.7382","EPOCH":"2023-03-25T22:00:00.999936","DECAY_DATE":null,"MEAN_MOTION_DDOT":"0.0000000000000","TLE_LINE2":"2 55482  42.9999  86.3016 0001349 251.7382 208.6418 15.04471557  1309","LAUNCH_DATE":"2023-02-02","INCLINATION":"42.9999","RA_OF_ASC_NODE":"86.3016","TLE_LINE1":"1 55482U 23015AK  23084.91667824  .00050729  00000-0  35554-2 0  9992","GP_ID":"228873462","REF_FRAME":"TEME","APOAPSIS":"554.065","PERIOD":"95.715","ECCENTRICITY":"0.00013490","MEAN_MOTION_DOT":"0.00050729","OBJECT_TYPE":"PAYLOAD","CLASSIFICATION_TYPE":"U","MEAN_MOTION":"15.04471557","PERIAPSIS":"552.195","FILE":"3871104","RCS_SIZE":"LARGE","CENTER_NAME":"EARTH","REV_AT_EPOCH":"130","SITE":"AFETR","BSTAR":"0.00355540000000","TIME_SYSTEM":"UTC","MEAN_ELEMENT_THEORY":"SGP4","MEAN_ANOMALY":"208.6418","OBJECT_NAME":"STARLINK-5693","EPHEMERIS_TYPE":"0","NORAD_CAT_ID":"55482","SEMIMAJOR_AXIS":"6931.265","COUNTRY_CODE":"US"},{"LAUNCH_DATE":"2023-02-02","TLE_LINE2":"2 55483  43.0002  86.3824 0001175 250.5824 176.3428 15.04475596  1308","MEAN_MOTION_DDOT":"0.0000000000000","DECAY_DATE":null,"EPOCH":"2023-03-25T22:00:00.999936","ARG_OF_PERICENTER":"250.5824","ELEMENT_SET_NO":"999","OBJECT_ID":"2023-015AL","OBJECT_TYPE":"PAYLOAD","MEAN_MOTION_DOT":"0.00035606","ECCENTRICITY":"0.00011750","PERIOD":"95.714","APOAPSIS":"553.932","REF_FRAME":"TEME","GP_ID":"228873712","RA_OF_ASC_NODE":"86.3824","INCLINATION":"43.0002","TLE_LINE1":"1 55483U 23015AL  23084.91667824  .00035606  00000-0  25049-2 0  9998","MEAN_ELEMENT_THEORY":"SGP4","TIME_SYSTEM":"UTC","BSTAR":"0.00250490000000","REV_AT_EPOCH":"130","SITE":"AFETR","CENTER_NAME":"EARTH","PERIAPSIS":"552.303","RCS_SIZE":"LARGE","FILE":"3871104","CLASSIFICATION_TYPE":"U","MEAN_MOTION":"15.04475596","COUNTRY_CODE":"US","SEMIMAJOR_AXIS":"6931.253","NORAD_CAT_ID":"55483","EPHEMERIS_TYPE":"0","MEAN_ANOMALY":"176.3428","OBJECT_NAME":"STARLINK-5692"},{"EPHEMERIS_TYPE":"0","OBJECT_NAME":"STARLINK-5696","MEAN_ANOMALY":"190.2220","COUNTRY_CODE":"US","NORAD_CAT_ID":"55484","SEMIMAJOR_AXIS":"6931.219","CENTER_NAME":"EARTH","FILE":"3871104","RCS_SIZE":"LARGE","PERIAPSIS":"552.172","MEAN_MOTION":"15.04486487","CLASSIFICATION_TYPE":"U","TIME_SYSTEM":"UTC","MEAN_ELEMENT_THEORY":"SGP4","BSTAR":"0.00334340000000","SITE":"AFETR","REV_AT_EPOCH":"130","REF_FRAME":"TEME","GP_ID":"228874464","TLE_LINE1":"1 55484U 23015AM  23084.91667824  .00047691  00000-0  33434-2 0  9993","RA_OF_ASC_NODE":"86.3212","INCLINATION":"43.0001","OBJECT_TYPE":"PAYLOAD","MEAN_MOTION_DOT":"0.00047691","ECCENTRICITY":"0.00013170","PERIOD":"95.714","APOAPSIS":"553.997","DECAY_DATE":null,"EPOCH":"2023-03-25T22:00:00.999936","ARG_OF_PERICENTER":"262.1030","ELEMENT_SET_NO":"999","OBJECT_ID":"2023-015AM","LAUNCH_DATE":"2023-02-02","TLE_LINE2":"2 55484  43.0001  86.3212 0001317 262.1030 190.2220 15.04486487  1301","MEAN_MOTION_DDOT":"0.0000000000000"},{"GP_ID":"228875215","TLE_LINE1":"1 55485U 23015AN  23084.91667824  .00053863  00000-0  37706-2 0  9998","RA_OF_ASC_NODE":"86.4028","INCLINATION":"43.0001","REF_FRAME":"TEME","ECCENTRICITY":"0.00006550","PERIOD":"95.714","APOAPSIS":"553.529","MEAN_MOTION_DOT":"0.00053863","OBJECT_TYPE":"PAYLOAD","ELEMENT_SET_NO":"999","OBJECT_ID":"2023-015AN","DECAY_DATE":null,"EPOCH":"2023-03-25T22:00:00.999936","ARG_OF_PERICENTER":"239.9303","MEAN_MOTION_DDOT":"0.0000000000000","LAUNCH_DATE":"2023-02-02","TLE_LINE2":"2 55485  43.0001  86.4028 0000655 239.9303 178.6107 15.04489702  1304","EPHEMERIS_TYPE":"0","OBJECT_NAME":"STARLINK-5695","MEAN_ANOMALY":"178.6107","NORAD_CAT_ID":"55485","SEMIMAJOR_AXIS":"6931.210","COUNTRY_CODE":"US","FILE":"3871104","RCS_SIZE":"LARGE","PERIAPSIS":"552.621","CLASSIFICATION_TYPE":"U","MEAN_MOTION":"15.04489702","CENTER_NAME":"EARTH","SITE":"AFETR","REV_AT_EPOCH":"130","MEAN_ELEMENT_THEORY":"SGP4","TIME_SYSTEM":"UTC","BSTAR":"0.00377060000000"},{"OBJECT_ID":"2023-015AP","ELEMENT_SET_NO":"999","ARG_OF_PERICENTER":"270.7794","EPOCH":"2023-03-25T22:00:00.999936","DECAY_DATE":null,"MEAN_MOTION_DDOT":"0.0000000000000","TLE_LINE2":"2 55486  42.9984  84.6447 0001315 270.7794 161.0721 15.16098205  1304","LAUNCH_DATE":"2023-02-02","INCLINATION":"42.9984","RA_OF_ASC_NODE":"84.6447","TLE_LINE1":"1 55486U 23015AP  23084.91667824 -.00873496  00000-0 -47921-1 0  9992","GP_ID":"228873963","REF_FRAME":"TEME","APOAPSIS":"518.555","PERIOD":"94.981","ECCENTRICITY":"0.00013150","OBJECT_TYPE":"PAYLOAD","MEAN_MOTION_DOT":"-0.00873496","CLASSIFICATION_TYPE":"U","MEAN_MOTION":"15.16098205","PERIAPSIS":"516.742","FILE":"3871104","RCS_SIZE":"LARGE","CENTER_NAME":"EARTH","REV_AT_EPOCH":"130","SITE":"AFETR","BSTAR":"-0.04792100000000","TIME_SYSTEM":"UTC","MEAN_ELEMENT_THEORY":"SGP4","MEAN_ANOMALY":"161.0721","OBJECT_NAME":"STARLINK-5704","EPHEMERIS_TYPE":"0","SEMIMAJOR_AXIS":"6895.784","NORAD_CAT_ID":"55486","COUNTRY_CODE":"US"},{"MEAN_MOTION":"15.04472391","CLASSIFICATION_TYPE":"U","PERIAPSIS":"552.446","RCS_SIZE":"LARGE","FILE":"3871104","CENTER_NAME":"EARTH","REV_AT_EPOCH":"130","SITE":"AFETR","BSTAR":"0.00377380000000","MEAN_ELEMENT_THEORY":"SGP4","TIME_SYSTEM":"UTC","MEAN_ANOMALY":"137.5180","OBJECT_NAME":"STARLINK-5701","EPHEMERIS_TYPE":"0","SEMIMAJOR_AXIS":"6931.263","NORAD_CAT_ID":"55487","COUNTRY_CODE":"US","OBJECT_ID":"2023-015AQ","ELEMENT_SET_NO":"999","EPOCH":"2023-03-25T22:00:00.999936","ARG_OF_PERICENTER":"248.9260","DECAY_DATE":null,"MEAN_MOTION_DDOT":"0.0000000000000","TLE_LINE2":"2 55487  43.0003  86.4797 0000984 248.9260 137.5180 15.04472391  1309","LAUNCH_DATE":"2023-02-02","INCLINATION":"43.0003","RA_OF_ASC_NODE":"86.4797","TLE_LINE1":"1 55487U 23015AQ  23084.91667824  .00053884  00000-0  37738-2 0  9998","GP_ID":"228874213","REF_FRAME":"TEME","APOAPSIS":"553.810","PERIOD":"95.715","ECCENTRICITY":"0.00009840","OBJECT_TYPE":"PAYLOAD","MEAN_MOTION_DOT":"0.00053884"},{"REF_FRAME":"TEME","TLE_LINE1":"1 55488U 23015AR  23084.91667824 -.00674413  00000-0 -52729-1 0  9994","RA_OF_ASC_NODE":"85.9795","INCLINATION":"42.9999","GP_ID":"228874965","OBJECT_TYPE":"PAYLOAD","MEAN_MOTION_DOT":"-0.00674413","APOAPSIS":"558.208","ECCENTRICITY":"0.00010420","PERIOD":"95.805","ARG_OF_PERICENTER":"263.2613","EPOCH":"2023-03-25T22:00:00.999936","DECAY_DATE":null,"OBJECT_ID":"2023-015AR","ELEMENT_SET_NO":"999","TLE_LINE2":"2 55488  42.9999  85.9795 0001042 263.2613 332.0257 15.03054814  1304","LAUNCH_DATE":"2023-02-02","MEAN_MOTION_DDOT":"0.0000000000000","OBJECT_NAME":"STARLINK-5706","MEAN_ANOMALY":"332.0257","EPHEMERIS_TYPE":"0","COUNTRY_CODE":"US","NORAD_CAT_ID":"55488","SEMIMAJOR_AXIS":"6935.620","CENTER_NAME":"EARTH","CLASSIFICATION_TYPE":"U","MEAN_MOTION":"15.03054814","FILE":"3871104","RCS_SIZE":"LARGE","PERIAPSIS":"556.762","BSTAR":"-0.05272900000000","TIME_SYSTEM":"UTC","MEAN_ELEMENT_THEORY":"SGP4","SITE":"AFETR","REV_AT_EPOCH":"130"},{"SITE":"AFETR","REV_AT_EPOCH":"130","BSTAR":"0.00248020000000","MEAN_ELEMENT_THEORY":"SGP4","TIME_SYSTEM":"UTC","CLASSIFICATION_TYPE":"U","MEAN_MOTION":"15.04460346","FILE":"3871104","RCS_SIZE":"LARGE","PERIAPSIS":"552.421","CENTER_NAME":"EARTH","SEMIMAJOR_AXIS":"6931.300","NORAD_CAT_ID":"55489","COUNTRY_CODE":"US","OBJECT_NAME":"STARLINK-5371","MEAN_ANOMALY":"175.9064","EPHEMERIS_TYPE":"0","MEAN_MOTION_DDOT":"0.0000000000000","TLE_LINE2":"2 55489  43.0000  86.3723 0001073 255.1013 175.9064 15.04460346  1306","LAUNCH_DATE":"2023-02-02","OBJECT_ID":"2023-015AS","ELEMENT_SET_NO":"999","ARG_OF_PERICENTER":"255.1013","EPOCH":"2023-03-25T22:00:00.999936","DECAY_DATE":null,"APOAPSIS":"553.908","ECCENTRICITY":"0.00010730","PERIOD":"95.715","OBJECT_TYPE":"PAYLOAD","MEAN_MOTION_DOT":"0.00035237","TLE_LINE1":"1 55489U 23015AS  23084.91667824  .00035237  00000-0  24802-2 0  9990","RA_OF_ASC_NODE":"86.3723","INCLINATION":"43.0000","GP_ID":"228874715","REF_FRAME":"TEME"}];
